[{"OBJECT_NAME":"STARLINK-30327","OBJECT_ID":"2023-129K","EPOCH":"2026-03-09T12:25:28.993152","MEAN_MOTION":15.26626807,"ECCENTRICITY":0.00230309,"INCLINATION":42.9974,"RA_OF_ASC_NODE":85.9834,"ARG_OF_PERICENTER":70.832,"MEAN_ANOMALY":289.5022,"EPHEMERIS_TYPE":0,"CLASSIFICATION_TYPE":"U","NORAD_CAT_ID":57707,"ELEMENT_SET_NO":999,"REV_AT_EPOCH":14090,"BSTAR":0.00029313824,"MEAN_MOTION_DOT":7.635e-5,"MEAN_MOTION_DDOT":0},{"OBJECT_NAME":"STARLINK-31940","OBJECT_ID":"2024-098R","EPOCH":"2026-03-09T13:19:36.161760","MEAN_MOTION":15.27575351,"ECCENTRICITY":5.207e-5,"INCLINATION":43.0013,"RA_OF_ASC_NODE":271.1418,"ARG_OF_PERICENTER":241.0178,"MEAN_ANOMALY":119.0622,"EPHEMERIS_TYPE":0,"CLASSIFICATION_TYPE":"U","NORAD_CAT_ID":59873,"ELEMENT_SET_NO":999,"REV_AT_EPOCH":10191,"BSTAR":1.7422101e-5,"MEAN_MOTION_DOT":2.18e-6,"MEAN_MOTION_DDOT":0}]
